DELTA 2 R/B(1)          
1 20453U 90008B   25364.05805150  .00069337  00000+0  10566-2 0  9992
2 20453  35.6065 268.5767 0107865 335.2822  24.2768 15.46814759915312
COSMOS 2058             
1 20465U 90010A   25364.31223264  .00007373  00000+0  44361-3 0  9990
2 20465  82.4711 115.7467 0009862 208.6956 151.3732 15.10658079931764
SL-14 R/B               
1 20466U 90010B   25364.28266873  .00000826  00000+0  97228-4 0  9997
2 20466  82.5028 332.5703 0020165 164.1693 196.0157 14.83490322918195
SL-14 R/B               
1 20511U 90018B   25364.23366822  .00000828  00000+0  10113-3 0  9995
2 20511  82.5221 288.0151 0015523 325.3501  34.6700 14.82067303912298
HST                     
1 20580U 90037B   25364.09832155  .00010102  00000+0  34807-3 0  9995
2 20580  28.4652 154.3142 0002616  68.5896 291.4978 15.28282797762658
SL-16 R/B               
1 20625U 90046B   25364.27764880  .00000130  00000+0  91881-4 0  9990
2 20625  70.9992  83.6914 0012512  43.4702 316.7404 14.14998135838576
COSMOS 2084             
1 20663U 90055A   25363.97534908  .00004308  00000+0  31241-3 0  9998
2 20663  62.7890 213.2610 0028913 177.1424 182.9847 15.05126832925823
SL-6 R/B(2)             
1 20666U 90055D   25364.06421723  .00004224  00000+0  32467-3 0  9990
2 20666  62.7830 130.5455 0014763 320.3219  39.6799 15.03168131927721
SL-8 R/B                
1 20775U 90078B   25364.30290068  .00019053  00000+0  58619-3 0  9992
2 20775  82.9056 313.5824 0369612 246.7398 109.4514 14.86562812798983
SL-8 R/B                
1 21088U 91006B   25364.12172072  .00000060  00000+0  44703-4 0  9994
2 21088  82.9410 221.7835 0021448 228.2263 246.0439 13.77492753754492
OKEAN-3                 
1 21397U 91039A   25364.17787492  .00004682  00000+0  33431-3 0  9995
2 21397  82.5165  44.1666 0013744 200.0851 159.9837 15.04232434854583
COSMOS 2151             
1 21422U 91042A   25364.23750793  .00003843  00000+0  30862-3 0  9992
2 21422  82.4967 150.6404 0011380 296.8444  63.1616 14.99766008852782
