CCSDS_OMM_VERS = 2.0
CREATION_DATE  = 
ORIGINATOR     = 

OBJECT_NAME    = DELTA 2 R/B(1)
OBJECT_ID      = 1990-008B
CENTER_NAME    = EARTH
REF_FRAME      = TEME
TIME_SYSTEM    = UTC
MEAN_ELEMENT_THEORY = SGP/SGP4

EPOCH          = 2025-12-30T01:23:35.649600
MEAN_MOTION    = 15.46814759
ECCENTRICITY   = .0107865
INCLINATION    = 35.6065
RA_OF_ASC_NODE = 268.5767
ARG_OF_PERICENTER = 335.2822
MEAN_ANOMALY   = 24.2768

EPHEMERIS_TYPE = 0
CLASSIFICATION_TYPE = U
NORAD_CAT_ID   = 20453
ELEMENT_SET_NO = 999
REV_AT_EPOCH   = 91531
BSTAR          = .10565523E-2
MEAN_MOTION_DOT = .69337E-3
MEAN_MOTION_DDOT = 0

CCSDS_OMM_VERS = 2.0
CREATION_DATE  = 
ORIGINATOR     = 

OBJECT_NAME    = COSMOS 2058
OBJECT_ID      = 1990-010A
CENTER_NAME    = EARTH
REF_FRAME      = TEME
TIME_SYSTEM    = UTC
MEAN_ELEMENT_THEORY = SGP/SGP4

EPOCH          = 2025-12-30T07:29:36.900096
MEAN_MOTION    = 15.10658079
ECCENTRICITY   = .00098624
INCLINATION    = 82.4711
RA_OF_ASC_NODE = 115.7467
ARG_OF_PERICENTER = 208.6956
MEAN_ANOMALY   = 151.3732

EPHEMERIS_TYPE = 0
CLASSIFICATION_TYPE = U
NORAD_CAT_ID   = 20465
ELEMENT_SET_NO = 999
REV_AT_EPOCH   = 93176
BSTAR          = .44360738E-3
MEAN_MOTION_DOT = .7373E-4
MEAN_MOTION_DDOT = 0

CCSDS_OMM_VERS = 2.0
CREATION_DATE  = 
ORIGINATOR     = 

OBJECT_NAME    = SL-14 R/B
OBJECT_ID      = 1990-010B
CENTER_NAME    = EARTH
REF_FRAME      = TEME
TIME_SYSTEM    = UTC
MEAN_ELEMENT_THEORY = SGP/SGP4

EPOCH          = 2025-12-30T06:47:02.578272
MEAN_MOTION    = 14.83490322
ECCENTRICITY   = .00201657
INCLINATION    = 82.5028
RA_OF_ASC_NODE = 332.5703
ARG_OF_PERICENTER = 164.1693
MEAN_ANOMALY   = 196.0157

EPHEMERIS_TYPE = 0
CLASSIFICATION_TYPE = U
NORAD_CAT_ID   = 20466
ELEMENT_SET_NO = 999
REV_AT_EPOCH   = 91819
BSTAR          = .97227741E-4
MEAN_MOTION_DOT = .826E-5
MEAN_MOTION_DDOT = 0

CCSDS_OMM_VERS = 2.0
CREATION_DATE  = 
ORIGINATOR     = 

OBJECT_NAME    = SL-14 R/B
OBJECT_ID      = 1990-018B
CENTER_NAME    = EARTH
REF_FRAME      = TEME
TIME_SYSTEM    = UTC
MEAN_ELEMENT_THEORY = SGP/SGP4

EPOCH          = 2025-12-30T05:36:28.934208
MEAN_MOTION    = 14.82067303
ECCENTRICITY   = .00155239
INCLINATION    = 82.5221
RA_OF_ASC_NODE = 288.0151
ARG_OF_PERICENTER = 325.3501
MEAN_ANOMALY   = 34.6700

EPHEMERIS_TYPE = 0
CLASSIFICATION_TYPE = U
NORAD_CAT_ID   = 20511
ELEMENT_SET_NO = 999
REV_AT_EPOCH   = 91229
BSTAR          = .10112707E-3
MEAN_MOTION_DOT = .828E-5
MEAN_MOTION_DDOT = 0

CCSDS_OMM_VERS = 2.0
CREATION_DATE  = 
ORIGINATOR     = 

OBJECT_NAME    = HST
OBJECT_ID      = 1990-037B
CENTER_NAME    = EARTH
REF_FRAME      = TEME
TIME_SYSTEM    = UTC
MEAN_ELEMENT_THEORY = SGP/SGP4

EPOCH          = 2025-12-30T02:21:34.981920
MEAN_MOTION    = 15.28282797
ECCENTRICITY   = .00026165
INCLINATION    = 28.4652
RA_OF_ASC_NODE = 154.3142
ARG_OF_PERICENTER = 68.5896
MEAN_ANOMALY   = 291.4978

EPHEMERIS_TYPE = 0
CLASSIFICATION_TYPE = U
NORAD_CAT_ID   = 20580
ELEMENT_SET_NO = 999
REV_AT_EPOCH   = 76265
BSTAR          = .34806746E-3
MEAN_MOTION_DOT = .10102E-3
MEAN_MOTION_DDOT = 0

CCSDS_OMM_VERS = 2.0
CREATION_DATE  = 
ORIGINATOR     = 

OBJECT_NAME    = SL-16 R/B
OBJECT_ID      = 1990-046B
CENTER_NAME    = EARTH
REF_FRAME      = TEME
TIME_SYSTEM    = UTC
MEAN_ELEMENT_THEORY = SGP/SGP4

EPOCH          = 2025-12-30T06:39:48.856320
MEAN_MOTION    = 14.14998135
ECCENTRICITY   = .00125126
INCLINATION    = 70.9992
RA_OF_ASC_NODE = 83.6914
ARG_OF_PERICENTER = 43.4702
MEAN_ANOMALY   = 316.7404

EPHEMERIS_TYPE = 0
CLASSIFICATION_TYPE = U
NORAD_CAT_ID   = 20625
ELEMENT_SET_NO = 999
REV_AT_EPOCH   = 83857
BSTAR          = .91880561E-4
MEAN_MOTION_DOT = .13E-5
MEAN_MOTION_DDOT = 0

CCSDS_OMM_VERS = 2.0
CREATION_DATE  = 
ORIGINATOR     = 

OBJECT_NAME    = COSMOS 2084
OBJECT_ID      = 1990-055A
CENTER_NAME    = EARTH
REF_FRAME      = TEME
TIME_SYSTEM    = UTC
MEAN_ELEMENT_THEORY = SGP/SGP4

EPOCH          = 2025-12-29T23:24:30.160512
MEAN_MOTION    = 15.05126832
ECCENTRICITY   = .00289136
INCLINATION    = 62.7890
RA_OF_ASC_NODE = 213.2610
ARG_OF_PERICENTER = 177.1424
MEAN_ANOMALY   = 182.9847

EPHEMERIS_TYPE = 0
CLASSIFICATION_TYPE = U
NORAD_CAT_ID   = 20663
ELEMENT_SET_NO = 999
REV_AT_EPOCH   = 92582
BSTAR          = .31241251E-3
MEAN_MOTION_DOT = .4308E-4
MEAN_MOTION_DDOT = 0

CCSDS_OMM_VERS = 2.0
CREATION_DATE  = 
ORIGINATOR     = 

OBJECT_NAME    = SL-6 R/B(2)
OBJECT_ID      = 1990-055D
CENTER_NAME    = EARTH
REF_FRAME      = TEME
TIME_SYSTEM    = UTC
MEAN_ELEMENT_THEORY = SGP/SGP4

EPOCH          = 2025-12-30T01:32:28.368672
MEAN_MOTION    = 15.03168131
ECCENTRICITY   = .00147633
INCLINATION    = 62.7830
RA_OF_ASC_NODE = 130.5455
ARG_OF_PERICENTER = 320.3219
MEAN_ANOMALY   = 39.6799

EPHEMERIS_TYPE = 0
CLASSIFICATION_TYPE = U
NORAD_CAT_ID   = 20666
ELEMENT_SET_NO = 999
REV_AT_EPOCH   = 92772
BSTAR          = .3246729E-3
MEAN_MOTION_DOT = .4224E-4
MEAN_MOTION_DDOT = 0

CCSDS_OMM_VERS = 2.0
CREATION_DATE  = 
ORIGINATOR     = 

OBJECT_NAME    = SL-8 R/B
OBJECT_ID      = 1990-078B
CENTER_NAME    = EARTH
REF_FRAME      = TEME
TIME_SYSTEM    = UTC
MEAN_ELEMENT_THEORY = SGP/SGP4

EPOCH          = 2025-12-30T07:16:10.618752
MEAN_MOTION    = 14.86562812
ECCENTRICITY   = .03696126
INCLINATION    = 82.9056
RA_OF_ASC_NODE = 313.5824
ARG_OF_PERICENTER = 246.7398
MEAN_ANOMALY   = 109.4514

EPHEMERIS_TYPE = 0
CLASSIFICATION_TYPE = U
NORAD_CAT_ID   = 20775
ELEMENT_SET_NO = 999
REV_AT_EPOCH   = 79898
BSTAR          = .58619384E-3
MEAN_MOTION_DOT = .19053E-3
MEAN_MOTION_DDOT = 0

CCSDS_OMM_VERS = 2.0
CREATION_DATE  = 
ORIGINATOR     = 

OBJECT_NAME    = SL-8 R/B
OBJECT_ID      = 1991-006B
CENTER_NAME    = EARTH
REF_FRAME      = TEME
TIME_SYSTEM    = UTC
MEAN_ELEMENT_THEORY = SGP/SGP4

EPOCH          = 2025-12-30T02:55:16.670208
MEAN_MOTION    = 13.77492753
ECCENTRICITY   = .00214481
INCLINATION    = 82.9410
RA_OF_ASC_NODE = 221.7835
ARG_OF_PERICENTER = 228.2263
MEAN_ANOMALY   = 246.0439

EPHEMERIS_TYPE = 0
CLASSIFICATION_TYPE = U
NORAD_CAT_ID   = 21088
ELEMENT_SET_NO = 999
REV_AT_EPOCH   = 75449
BSTAR          = .44702538E-4
MEAN_MOTION_DOT = .6E-6
MEAN_MOTION_DDOT = 0

CCSDS_OMM_VERS = 2.0
CREATION_DATE  = 
ORIGINATOR     = 

OBJECT_NAME    = OKEAN-3
OBJECT_ID      = 1991-039A
CENTER_NAME    = EARTH
REF_FRAME      = TEME
TIME_SYSTEM    = UTC
MEAN_ELEMENT_THEORY = SGP/SGP4

EPOCH          = 2025-12-30T04:16:08.393088
MEAN_MOTION    = 15.04232434
ECCENTRICITY   = .00137441
INCLINATION    = 82.5165
RA_OF_ASC_NODE = 44.1666
ARG_OF_PERICENTER = 200.0851
MEAN_ANOMALY   = 159.9837

EPHEMERIS_TYPE = 0
CLASSIFICATION_TYPE = U
NORAD_CAT_ID   = 21397
ELEMENT_SET_NO = 999
REV_AT_EPOCH   = 85458
BSTAR          = .33431441E-3
MEAN_MOTION_DOT = .4682E-4
MEAN_MOTION_DDOT = 0

CCSDS_OMM_VERS = 2.0
CREATION_DATE  = 
ORIGINATOR     = 

OBJECT_NAME    = COSMOS 2151
OBJECT_ID      = 1991-042A
CENTER_NAME    = EARTH
REF_FRAME      = TEME
TIME_SYSTEM    = UTC
MEAN_ELEMENT_THEORY = SGP/SGP4

EPOCH          = 2025-12-30T05:42:00.685152
MEAN_MOTION    = 14.99766008
ECCENTRICITY   = .00113806
INCLINATION    = 82.4967
RA_OF_ASC_NODE = 150.6404
ARG_OF_PERICENTER = 296.8444
MEAN_ANOMALY   = 63.1616

EPHEMERIS_TYPE = 0
CLASSIFICATION_TYPE = U
NORAD_CAT_ID   = 21422
ELEMENT_SET_NO = 999
REV_AT_EPOCH   = 85278
BSTAR          = .30861877E-3
MEAN_MOTION_DOT = .3843E-4
MEAN_MOTION_DDOT = 0

